{
  "type": "FeatureCollection",
  "features": [
    {
      "type": "Feature",
      "properties": {
        "norad_id": 66334,
        "name": "STARLINK-35407",
        "group": "last-30-days",
        "lat": 40.47853935335287,
        "lon": 108.56648785138091,
        "alt_km": 408.97506464441267,
        "timestamp": "2025-12-02T21:34:00.040680+00:00",
        "meta_object_name": "STARLINK-35407",
        "meta_object_id": "2025-253R",
        "meta_epoch": "2025-12-02T05:47:54.704832",
        "meta_mean_motion": 15.50606846,
        "meta_eccentricity": 0.000182,
        "meta_inclination": 43.0002,
        "meta_ra_of_asc_node": 46.0853,
        "meta_arg_of_pericenter": 277.7851,
        "meta_mean_anomaly": 82.2803,
        "meta_ephemeris_type": 0,
        "meta_classification_type": "U",
        "meta_norad_cat_id": 66334,
        "meta_element_set_no": 999,
        "meta_rev_at_epoch": 530,
        "meta_bstar": 0.0026112,
        "meta_mean_motion_dot": 0.00156096,
        "meta_mean_motion_ddot": 0,
        "tle_line1": "1 66334U 25253R   25336.24160538  .00156096  00000+0  26112-2 0  9997",
        "tle_line2": "2 66334  43.0002  46.0853 0001820 277.7851  82.2803 15.50606846  5309"
      },
      "geometry": {
        "type": "Point",
        "coordinates": [
          108.56648785138091,
          40.47853935335287
        ]
      }
    },
    {
      "type": "Feature",
      "properties": {
        "norad_id": 66335,
        "name": "STARLINK-35417",
        "group": "last-30-days",
        "lat": -27.982399070288526,
        "lon": 7.762072954990851,
        "alt_km": 446.02153474240185,
        "timestamp": "2025-12-02T21:34:00.040691+00:00",
        "meta_object_name": "STARLINK-35417",
        "meta_object_id": "2025-253S",
        "meta_epoch": "2025-12-02T12:00:05.998752",
        "meta_mean_motion": 15.40644808,
        "meta_eccentricity": 0.0001277,
        "meta_inclination": 43.0008,
        "meta_ra_of_asc_node": 44.8201,
        "meta_arg_of_pericenter": 271.575,
        "meta_mean_anomaly": 351.8921,
        "meta_ephemeris_type": 0,
        "meta_classification_type": "U",
        "meta_norad_cat_id": 66335,
        "meta_element_set_no": 999,
        "meta_rev_at_epoch": 528,
        "meta_bstar": 0.0012096,
        "meta_mean_motion_dot": 0.00050466,
        "meta_mean_motion_ddot": 0,
        "tle_line1": "1 66335U 25253S   25336.50006943  .00050466  00000+0  12096-2 0  9996",
        "tle_line2": "2 66335  43.0008  44.8201 0001277 271.5750 351.8921 15.40644808  5287"
      },
      "geometry": {
        "type": "Point",
        "coordinates": [
          7.762072954990851,
          -27.982399070288526
        ]
      }
    },
    {
      "type": "Feature",
      "properties": {
        "norad_id": 66336,
        "name": "STARLINK-35404",
        "group": "last-30-days",
        "lat": 42.59988359338937,
        "lon": 122.89222957133413,
        "alt_km": 408.5719713538592,
        "timestamp": "2025-12-02T21:34:00.040703+00:00",
        "meta_object_name": "STARLINK-35404",
        "meta_object_id": "2025-253T",
        "meta_epoch": "2025-12-02T05:45:07.240032",
        "meta_mean_motion": 15.50663874,
        "meta_eccentricity": 0.0001575,
        "meta_inclination": 42.9999,
        "meta_ra_of_asc_node": 46.0686,
        "meta_arg_of_pericenter": 253.9948,
        "meta_mean_anomaly": 106.0739,
        "meta_ephemeris_type": 0,
        "meta_classification_type": "U",
        "meta_norad_cat_id": 66336,
        "meta_element_set_no": 999,
        "meta_rev_at_epoch": 530,
        "meta_bstar": 0.0021834,
        "meta_mean_motion_dot": 0.00130295,
        "meta_mean_motion_ddot": 0,
        "tle_line1": "1 66336U 25253T   25336.23966713  .00130295  00000+0  21834-2 0  9996",
        "tle_line2": "2 66336  42.9999  46.0686 0001575 253.9948 106.0739 15.50663874  5305"
      },
      "geometry": {
        "type": "Point",
        "coordinates": [
          122.89222957133413,
          42.59988359338937
        ]
      }
    },
    {
      "type": "Feature",
      "properties": {
        "norad_id": 66337,
        "name": "STARLINK-34783",
        "group": "last-30-days",
        "lat": -12.584873761607911,
        "lon": 28.602201775361205,
        "alt_km": 445.0777196317704,
        "timestamp": "2025-12-02T21:34:00.040714+00:00",
        "meta_object_name": "STARLINK-34783",
        "meta_object_id": "2025-253U",
        "meta_epoch": "2025-12-02T12:00:05.998752",
        "meta_mean_motion": 15.40612881,
        "meta_eccentricity": 0.0001185,
        "meta_inclination": 43.0007,
        "meta_ra_of_asc_node": 44.7603,
        "meta_arg_of_pericenter": 270.9097,
        "meta_mean_anomaly": 17.4567,
        "meta_ephemeris_type": 0,
        "meta_classification_type": "U",
        "meta_norad_cat_id": 66337,
        "meta_element_set_no": 999,
        "meta_rev_at_epoch": 533,
        "meta_bstar": 0.0017637,
        "meta_mean_motion_dot": 0.00073872,
        "meta_mean_motion_ddot": 0,
        "tle_line1": "1 66337U 25253U   25336.50006943  .00073872  00000+0  17637-2 0  9990",
        "tle_line2": "2 66337  43.0007  44.7603 0001185 270.9097  17.4567 15.40612881  5331"
      },
      "geometry": {
        "type": "Point",
        "coordinates": [
          28.602201775361205,
          -12.584873761607911
        ]
      }
    },
    {
      "type": "Feature",
      "properties": {
        "norad_id": 66338,
        "name": "STARLINK-35477",
        "group": "last-30-days",
        "lat": -34.384119870474,
        "lon": -4.697189524347002,
        "alt_km": 446.7752959677291,
        "timestamp": "2025-12-02T21:34:00.040725+00:00",
        "meta_object_name": "STARLINK-35477",
        "meta_object_id": "2025-253V",
        "meta_epoch": "2025-12-02T12:00:05.998752",
        "meta_mean_motion": 15.40639376,
        "meta_eccentricity": 6.62e-05,
        "meta_inclination": 43.0005,
        "meta_ra_of_asc_node": 44.8511,
        "meta_arg_of_pericenter": 254.3783,
        "meta_mean_anomaly": 356.6465,
        "meta_ephemeris_type": 0,
        "meta_classification_type": "U",
        "meta_norad_cat_id": 66338,
        "meta_element_set_no": 999,
        "meta_rev_at_epoch": 538,
        "meta_bstar": 0.0011431,
        "meta_mean_motion_dot": 0.00047647,
        "meta_mean_motion_ddot": 0,
        "tle_line1": "1 66338U 25253V   25336.50006943  .00047647  00000+0  11431-2 0  9998",
        "tle_line2": "2 66338  43.0005  44.8511 0000662 254.3783 356.6465 15.40639376  5384"
      },
      "geometry": {
        "type": "Point",
        "coordinates": [
          -4.697189524347002,
          -34.384119870474
        ]
      }
    },
    {
      "type": "Feature",
      "properties": {
        "norad_id": 66339,
        "name": "STARLINK-35443",
        "group": "last-30-days",
        "lat": 42.77636888869521,
        "lon": 125.37595208876924,
        "alt_km": 424.67507866830965,
        "timestamp": "2025-12-02T21:34:00.040735+00:00",
        "meta_object_name": "STARLINK-35443",
        "meta_object_id": "2025-253W",
        "meta_epoch": "2025-12-02T12:00:05.998752",
        "meta_mean_motion": 15.47063659,
        "meta_eccentricity": 0.0001398,
        "meta_inclination": 43.0005,
        "meta_ra_of_asc_node": 44.5274,
        "meta_arg_of_pericenter": 274.1341,
        "meta_mean_anomaly": 109.8171,
        "meta_ephemeris_type": 0,
        "meta_classification_type": "U",
        "meta_norad_cat_id": 66339,
        "meta_element_set_no": 999,
        "meta_rev_at_epoch": 533,
        "meta_bstar": -0.043461,
        "meta_mean_motion_dot": -0.02009422,
        "meta_mean_motion_ddot": 0,
        "tle_line1": "1 66339U 25253W   25336.50006943 -.02009422  00000+0 -43461-1 0  9999",
        "tle_line2": "2 66339  43.0005  44.5274 0001398 274.1341 109.8171 15.47063659  5334"
      },
      "geometry": {
        "type": "Point",
        "coordinates": [
          125.37595208876924,
          42.77636888869521
        ]
      }
    },
    {
      "type": "Feature",
      "properties": {
        "norad_id": 66340,
        "name": "STARLINK-35218",
        "group": "last-30-days",
        "lat": 42.781292635886004,
        "lon": 125.46213673309732,
        "alt_km": 408.6607505445081,
        "timestamp": "2025-12-02T21:34:00.040746+00:00",
        "meta_object_name": "STARLINK-35218",
        "meta_object_id": "2025-253X",
        "meta_epoch": "2025-12-02T05:44:37.704192",
        "meta_mean_motion": 15.50658934,
        "meta_eccentricity": 0.0001723,
        "meta_inclination": 43.0002,
        "meta_ra_of_asc_node": 46.0659,
        "meta_arg_of_pericenter": 259.1035,
        "meta_mean_anomaly": 100.9632,
        "meta_ephemeris_type": 0,
        "meta_classification_type": "U",
        "meta_norad_cat_id": 66340,
        "meta_element_set_no": 999,
        "meta_rev_at_epoch": 530,
        "meta_bstar": 0.0021881,
        "meta_mean_motion_dot": 0.00130561,
        "meta_mean_motion_ddot": 0,
        "tle_line1": "1 66340U 25253X   25336.23932528  .00130561  00000+0  21881-2 0  9996",
        "tle_line2": "2 66340  43.0002  46.0659 0001723 259.1035 100.9632 15.50658934  5303"
      },
      "geometry": {
        "type": "Point",
        "coordinates": [
          125.46213673309732,
          42.781292635886004
        ]
      }
    }
  ]
}